GEOSCAN-3 (RS92S3)
1 64893U 25155T   26188.78264885  .00012678  00000-0  36198-3 0  9995
2 64893  97.4547 158.9101 0008576 106.2732 253.9456 15.36126275 84015
INNOSAT3 (RS92S0)
1 64894U 25155U   26188.78472219  .00028558  00000-0  59730-3 0  9999
2 64894  97.4491 160.7965 0008297 106.8639 253.3520 15.45401997 84142
KNACKSAT-2
1 67683U 98067XZ  26187.43025761  .00050889  00000-0  57855-3 0  9995
2 67683  51.6265 197.5608 0008260 296.8985  63.1164 15.61755488 23282
