OBJECT_NAME,OBJECT_ID,EPOCH,MEAN_MOTION,ECCENTRICITY,INCLINATION,RA_OF_ASC_NODE,ARG_OF_PERICENTER,MEAN_ANOMALY,EPHEMERIS_TYPE,CLASSIFICATION_TYPE,NORAD_CAT_ID,ELEMENT_SET_NO,REV_AT_EPOCH,BSTAR,MEAN_MOTION_DOT,MEAN_MOTION_DDOT
GEOSCAN 3 (RS92S3),2025-155T,2026-07-07T18:47:00.860640,15.36126275,.0008576,97.4547,158.9101,106.2732,253.9456,0,U,64893,999,8401,.36198E-3,.12678E-3,0
INNOSAT 3 (RS92S0),2025-155U,2026-07-07T18:49:59.997216,15.45401997,.0008297,97.4491,160.7965,106.8639,253.3520,0,U,64894,999,8414,.5973E-3,.28558E-3,0
KNACKSAT-2,1998-067XZ,2026-07-06T10:19:34.257504,15.61755488,.00082597,51.6265,197.5608,296.8985,63.1164,0,U,67683,999,2328,.57854596E-3,.50889E-3,0
